OBJECT_NAME,OBJECT_ID,EPOCH,MEAN_MOTION,ECCENTRICITY,INCLINATION,RA_OF_ASC_NODE,ARG_OF_PERICENTER,MEAN_ANOMALY,EPHEMERIS_TYPE,CLASSIFICATION_TYPE,NORAD_CAT_ID,ELEMENT_SET_NO,REV_AT_EPOCH,BSTAR,MEAN_MOTION_DOT,MEAN_MOTION_DDOT
STARLINK-3180,2022-005AK,2022-05-17T06:00:00.999648,15.08799362,.0002104,53.2185,70.0143,44.5420,131.0232,0,U,51137,999,1964,.42908E-2,.68589E-3,0
STARLINK-3177,2022-005AL,2022-05-16T22:00:00.999936,15.08875320,.0001849,53.2164,71.5187,55.3423,68.5744,0,U,51138,999,1959,-.22508E-2,-.35966E-3,0
STARLINK-3172,2022-005AM,2022-05-16T22:00:00.999936,15.08823759,.0001731,53.2180,71.5069,45.6016,158.4437,0,U,51139,999,1959,-.1636E-2,-.26219E-3,0
STARLINK-3175,2022-005AN,2022-05-16T22:00:00.999936,15.08843119,.0001898,53.2171,71.5204,50.0625,93.9217,0,U,51140,999,1959,-.22773E-2,-.36353E-3,0
STARLINK-3179,2022-005AP,2022-05-16T22:00:00.999936,15.08826080,.0001717,53.2185,71.5074,48.1589,195.8276,0,U,51141,999,1959,-.57033E-3,-.935E-4,0
STARLINK-3369,2022-005AQ,2022-05-16T22:00:00.999936,15.25359956,.0001911,53.2175,62.8054,36.1434,270.6129,0,U,51142,999,1974,-.14171E-1,-.346008E-2,0
STARLINK-3184,2022-005AR,2022-05-16T22:00:00.999936,15.08836512,.0002623,53.2175,81.5294,44.1420,284.8595,0,U,51143,999,1944,.32224E-3,.4843E-4,0
STARLINK-3185,2022-005AS,2022-05-16T22:00:00.999936,15.08836462,.0001838,53.2181,71.5070,54.2307,169.7593,0,U,51144,999,1959,-.89238E-4,-.1708E-4,0
STARLINK-3365,2022-005AT,2022-05-16T22:00:00.999936,15.08837923,.0002823,53.2187,81.5315,36.4890,312.5014,0,U,51145,999,1944,.30598E-3,.4584E-4,0
STARLINK-3354,2022-005AU,2022-05-16T22:00:00.999936,15.08847402,.0001826,53.2180,71.5080,48.4225,135.5636,0,U,51146,999,1959,-.18158E-2,-.29077E-3,0
STARLINK-3352,2022-005AV,2022-05-16T22:00:00.999936,15.08855358,.0001481,53.2194,81.5206,54.8288,254.1442,0,U,51147,999,130,-.28352E-3,-.4799E-4,0
STARLINK-3359,2022-005AW,2022-05-16T22:00:00.999936,15.08825055,.000245,53.2165,81.5212,45.0074,324.0065,0,U,51148,999,1944,-.66677E-4,-.1349E-4,0
STARLINK-3360,2022-005AX,2022-05-16T22:00:00.999936,15.08835974,.0002775,53.2159,81.5197,45.4475,343.5790,0,U,51149,999,1944,.21482E-3,.3132E-4,0
STARLINK-3357,2022-005AY,2022-05-16T22:00:00.999936,15.08837013,.0001679,53.2186,71.5066,47.4396,216.5575,0,U,51150,999,1959,-.17094E-3,-.3007E-4,0
STARLINK-3361,2022-005AZ,2022-05-16T22:00:00.999936,15.08812263,.00024,53.2152,81.5155,52.4770,16.4756,0,U,51151,999,1944,.90133E-4,.1145E-4,0
STARLINK-3364,2022-005BA,2022-05-16T22:00:00.999936,15.08839738,.0002272,53.2162,81.5162,50.8048,358.1836,0,U,51152,999,1944,-.13499E-3,-.2436E-4,0
STARLINK-3167,2022-010E,2022-05-17T06:00:00.999648,15.08816483,.000206,53.2188,50.0130,48.1027,297.4642,0,U,51460,999,1705,.31171E-2,.49639E-3,0
STARLINK-3181,2022-010F,2022-05-17T06:00:00.999648,15.08825462,.0002002,53.2184,50.0183,46.5360,199.0688,0,U,51461,999,1710,.29348E-2,.46711E-3,0
STARLINK-3166,2022-010G,2022-05-16T22:00:00.999936,15.08866207,.0001958,53.2197,51.5111,37.0216,216.9722,0,U,51462,999,1702,-.36383E-2,-.5777E-3,0
STARLINK-3419,2022-010H,2022-05-16T22:00:00.999936,15.08855155,.0001872,53.2192,51.5071,47.0656,346.9108,0,U,51463,999,130,-.15035E-2,-.24147E-3,0
STARLINK-3189,2022-010J,2022-05-16T22:00:00.999936,15.08851370,.0001994,53.2193,51.5095,42.4858,251.4931,0,U,51464,999,1700,-.31587E-2,-.50225E-3,0
STARLINK-3401,2022-010K,2022-05-17T06:00:00.999648,15.08808140,.0002058,53.2187,50.0132,49.5837,275.9862,0,U,51465,999,1711,.30989E-2,.49334E-3,0
STARLINK-3178,2022-010M,2022-05-16T22:00:00.999936,15.08869019,.0002047,53.2180,51.5226,34.2614,19.7282,0,U,51467,999,1705,-.4012E-2,-.63628E-3,0
STARLINK-3174,2022-010N,2022-05-16T22:00:00.999936,15.08846547,.0001993,53.2207,51.5120,44.5352,309.3596,0,U,51468,999,1706,-.68419E-3,-.11163E-3,0
STARLINK-3182,2022-010P,2022-05-16T22:00:00.999936,15.08829661,.0001855,53.2183,51.5088,38.6947,235.2437,0,U,51469,999,1705,-.56193E-3,-.9218E-4,0
STARLINK-3165,2022-010R,2022-05-16T17:50:35.013120,15.08837948,.000172,53.2192,47.2869,47.5280,312.5857,0,U,51471,999,1660,.25471E-5,-.248E-5,0
STARLINK-3415,2022-010S,2022-05-16T22:00:00.999936,15.08829826,.0001855,53.2212,51.5123,49.2250,324.7360,0,U,51472,999,130,-.12559E-2,-.20215E-3,0
STARLINK-3528,2022-016A,2022-05-17T06:00:00.999648,15.08811321,.0002357,53.2211,100.0191,39.3840,331.2087,0,U,51714,999,1428,.14705E-2,.23174E-3,0
STARLINK-3533,2022-016B,2022-05-16T22:00:00.999936,15.08841539,.0002295,53.2194,101.5108,49.3362,9.6715,0,U,51715,999,130,-.84782E-3,-.13757E-3,0
STARLINK-3543,2022-016C,2022-05-17T06:00:00.999648,15.08834307,.0002425,53.2216,100.0199,41.7564,348.7767,0,U,51716,999,1428,.15084E-2,.23796E-3,0
