STARLINK-3180           
1 51137U 22005AK  22137.25001157  .00068589  00000+0  42908-2 0  9992
2 51137  53.2185  70.0143 0002104  44.5420 131.0232 15.08799362 19646
STARLINK-3177           
1 51138U 22005AL  22136.91667824 -.00035966  00000+0 -22508-2 0  9993
2 51138  53.2164  71.5187 0001849  55.3423  68.5744 15.08875320 19591
STARLINK-3172           
1 51139U 22005AM  22136.91667824 -.00026219  00000+0 -16360-2 0  9994
2 51139  53.2180  71.5069 0001731  45.6016 158.4437 15.08823759 19596
STARLINK-3175           
1 51140U 22005AN  22136.91667824 -.00036353  00000+0 -22773-2 0  9991
2 51140  53.2171  71.5204 0001898  50.0625  93.9217 15.08843119 19590
STARLINK-3179           
1 51141U 22005AP  22136.91667824 -.00009350  00000+0 -57033-3 0  9997
2 51141  53.2185  71.5074 0001717  48.1589 195.8276 15.08826080 19593
STARLINK-3369           
1 51142U 22005AQ  22136.91667824 -.00346008  00000+0 -14171-1 0  9996
2 51142  53.2175  62.8054 0001911  36.1434 270.6129 15.25359956 19744
STARLINK-3184           
1 51143U 22005AR  22136.91667824  .00004843  00000+0  32224-3 0  9994
2 51143  53.2175  81.5294 0002623  44.1420 284.8595 15.08836512 19444
STARLINK-3185           
1 51144U 22005AS  22136.91667824 -.00001708  00000+0 -89238-4 0  9992
2 51144  53.2181  71.5070 0001838  54.2307 169.7593 15.08836462 19595
STARLINK-3365           
1 51145U 22005AT  22136.91667824  .00004584  00000+0  30598-3 0  9990
2 51145  53.2187  81.5315 0002823  36.4890 312.5014 15.08837923 19442
STARLINK-3354           
1 51146U 22005AU  22136.91667824 -.00029077  00000+0 -18158-2 0  9994
2 51146  53.2180  71.5080 0001826  48.4225 135.5636 15.08847402 19593
STARLINK-3352           
1 51147U 22005AV  22136.91667824 -.00004799  00000+0 -28352-3 0  9997
2 51147  53.2194  81.5206 0001481  54.8288 254.1442 15.08855358  1309
STARLINK-3359           
1 51148U 22005AW  22136.91667824 -.00001349  00000+0 -66677-4 0  9999
2 51148  53.2165  81.5212 0002450  45.0074 324.0065 15.08825055 19440
STARLINK-3360           
1 51149U 22005AX  22136.91667824  .00003132  00000+0  21482-3 0  9994
2 51149  53.2159  81.5197 0002775  45.4475 343.5790 15.08835974 19447
STARLINK-3357           
1 51150U 22005AY  22136.91667824 -.00003007  00000+0 -17094-3 0  9993
2 51150  53.2186  71.5066 0001679  47.4396 216.5575 15.08837013 19591
STARLINK-3361           
1 51151U 22005AZ  22136.91667824  .00001145  00000+0  90133-4 0  9999
2 51151  53.2152  81.5155 0002400  52.4770  16.4756 15.08812263 19442
STARLINK-3364           
1 51152U 22005BA  22136.91667824 -.00002436  00000+0 -13499-3 0  9995
2 51152  53.2162  81.5162 0002272  50.8048 358.1836 15.08839738 19440
STARLINK-3167           
1 51460U 22010E   22137.25001157  .00049639  00000+0  31171-2 0  9992
2 51460  53.2188  50.0130 0002060  48.1027 297.4642 15.08816483 17055
STARLINK-3181           
1 51461U 22010F   22137.25001157  .00046711  00000+0  29348-2 0  9994
2 51461  53.2184  50.0183 0002002  46.5360 199.0688 15.08825462 17108
STARLINK-3166           
1 51462U 22010G   22136.91667824 -.00057770  00000+0 -36383-2 0  9992
2 51462  53.2197  51.5111 0001958  37.0216 216.9722 15.08866207 17025
STARLINK-3419           
1 51463U 22010H   22136.91667824 -.00024147  00000+0 -15035-2 0  9996
2 51463  53.2192  51.5071 0001872  47.0656 346.9108 15.08855155  1306
STARLINK-3189           
1 51464U 22010J   22136.91667824 -.00050225  00000+0 -31587-2 0  9993
2 51464  53.2193  51.5095 0001994  42.4858 251.4931 15.08851370 17005
STARLINK-3401           
1 51465U 22010K   22137.25001157  .00049334  00000+0  30989-2 0  9995
2 51465  53.2187  50.0132 0002058  49.5837 275.9862 15.08808140 17115
STARLINK-3178           
1 51467U 22010M   22136.91667824 -.00063628  00000+0 -40120-2 0  9990
2 51467  53.2180  51.5226 0002047  34.2614  19.7282 15.08869019 17057
STARLINK-3174           
1 51468U 22010N   22136.91667824 -.00011163  00000+0 -68419-3 0  9990
2 51468  53.2207  51.5120 0001993  44.5352 309.3596 15.08846547 17061
STARLINK-3182           
1 51469U 22010P   22136.91667824 -.00009218  00000+0 -56193-3 0  9995
2 51469  53.2183  51.5088 0001855  38.6947 235.2437 15.08829661 17057
STARLINK-3165           
1 51471U 22010R   22136.74346080 -.00000248  00000+0  25471-5 0  9997
2 51471  53.2192  47.2869 0001720  47.5280 312.5857 15.08837948 16601
STARLINK-3415           
1 51472U 22010S   22136.91667824 -.00020215  00000+0 -12559-2 0  9996
2 51472  53.2212  51.5123 0001855  49.2250 324.7360 15.08829826  1302
STARLINK-3528           
1 51714U 22016A   22137.25001157  .00023174  00000+0  14705-2 0  9990
2 51714  53.2211 100.0191 0002357  39.3840 331.2087 15.08811321 14289
STARLINK-3533           
1 51715U 22016B   22136.91667824 -.00013757  00000+0 -84782-3 0  9993
2 51715  53.2194 101.5108 0002295  49.3362   9.6715 15.08841539  1302
STARLINK-3543           
1 51716U 22016C   22137.25001157  .00023796  00000+0  15084-2 0  9993
2 51716  53.2216 100.0199 0002425  41.7564 348.7767 15.08834307 14287
